start=new Date('2023-06-09T00:00:00.000Z').valueOf();
sats=[{"SEMIMAJOR_AXIS":"6894.820","CENTER_NAME":"EARTH","EPHEMERIS_TYPE":"0","SITE":"AFETR","EPOCH":"2023-06-08T22:00:00.999936","BSTAR":"-0.05170500000000","GP_ID":"233479467","MEAN_ANOMALY":"263.7744","MEAN_MOTION":"15.16416169","RCS_SIZE":"LARGE","MEAN_MOTION_DDOT":"0.0000000000000","FILE":"3928108","REF_FRAME":"TEME","COUNTRY_CODE":"US","OBJECT_ID":"2023-042AR","ELEMENT_SET_NO":"999","CLASSIFICATION_TYPE":"U","PERIAPSIS":"515.939","APOAPSIS":"517.430","TIME_SYSTEM":"UTC","PERIOD":"94.961","TLE_LINE2":"2 56025  42.9978 103.4462 0001081 262.1909 263.7744 15.16416169 12251","REV_AT_EPOCH":"1225","ARG_OF_PERICENTER":"262.1909","MEAN_ELEMENT_THEORY":"SGP4","NORAD_CAT_ID":"56025","RA_OF_ASC_NODE":"103.4462","TLE_LINE1":"1 56025U 23042AR  23159.91667824 -.00945280  00000-0 -51705-1 0  9991","LAUNCH_DATE":"2023-03-24","MEAN_MOTION_DOT":"-0.00945280","OBJECT_NAME":"STARLINK-5766","INCLINATION":"42.9978","OBJECT_TYPE":"PAYLOAD","DECAY_DATE":null,"ECCENTRICITY":"0.00010810"},{"MEAN_MOTION_DOT":"-0.00941427","TLE_LINE1":"1 56026U 23042AS  23159.91667824 -.00941427  00000-0 -50457-1 0  9994","LAUNCH_DATE":"2023-03-24","INCLINATION":"42.9978","OBJECT_NAME":"STARLINK-5770","OBJECT_TYPE":"PAYLOAD","DECAY_DATE":null,"ECCENTRICITY":"0.00011290","ARG_OF_PERICENTER":"254.0144","MEAN_ELEMENT_THEORY":"SGP4","RA_OF_ASC_NODE":"103.3416","NORAD_CAT_ID":"56026","RCS_SIZE":"LARGE","MEAN_MOTION":"15.17110878","MEAN_ANOMALY":"315.9757","REF_FRAME":"TEME","FILE":"3928087","MEAN_MOTION_DDOT":"0.0000000000000","APOAPSIS":"515.358","PERIAPSIS":"513.801","CLASSIFICATION_TYPE":"U","ELEMENT_SET_NO":"999","OBJECT_ID":"2023-042AS","COUNTRY_CODE":"US","REV_AT_EPOCH":"1225","TLE_LINE2":"2 56026  42.9978 103.3416 0001129 254.0144 315.9757 15.17110878 12257","PERIOD":"94.917","TIME_SYSTEM":"UTC","SEMIMAJOR_AXIS":"6892.715","EPHEMERIS_TYPE":"0","CENTER_NAME":"EARTH","BSTAR":"-0.05045700000000","EPOCH":"2023-06-08T22:00:00.999936","SITE":"AFETR","GP_ID":"233478810"},{"MEAN_MOTION_DOT":"-0.00943683","TLE_LINE1":"1 56027U 23042AT  23159.91667824 -.00943683  00000-0 -51239-1 0  9990","LAUNCH_DATE":"2023-03-24","INCLINATION":"42.9979","OBJECT_NAME":"STARLINK-5777","OBJECT_TYPE":"PAYLOAD","DECAY_DATE":null,"ECCENTRICITY":"0.00010810","ARG_OF_PERICENTER":"261.0361","MEAN_ELEMENT_THEORY":"SGP4","RA_OF_ASC_NODE":"103.4080","NORAD_CAT_ID":"56027","RCS_SIZE":"LARGE","MEAN_ANOMALY":"280.8907","MEAN_MOTION":"15.16667375","FILE":"3928046","MEAN_MOTION_DDOT":"0.0000000000000","REF_FRAME":"TEME","CLASSIFICATION_TYPE":"U","PERIAPSIS":"515.178","APOAPSIS":"516.668","COUNTRY_CODE":"US","ELEMENT_SET_NO":"999","OBJECT_ID":"2023-042AT","TLE_LINE2":"2 56027  42.9979 103.4080 0001081 261.0361 280.8907 15.16667375 12258","REV_AT_EPOCH":"1225","PERIOD":"94.945","TIME_SYSTEM":"UTC","SEMIMAJOR_AXIS":"6894.058","EPHEMERIS_TYPE":"0","CENTER_NAME":"EARTH","BSTAR":"-0.05123900000000","SITE":"AFETR","EPOCH":"2023-06-08T22:00:00.999936","GP_ID":"233477458"},{"ARG_OF_PERICENTER":"261.2254","MEAN_ELEMENT_THEORY":"SGP4","NORAD_CAT_ID":"56028","RA_OF_ASC_NODE":"103.2112","TLE_LINE1":"1 56028U 23042AU  23159.91667824 -.00938932  00000-0 -49051-1 0  9991","LAUNCH_DATE":"2023-03-24","MEAN_MOTION_DOT":"-0.00938932","OBJECT_NAME":"STARLINK-5779","INCLINATION":"42.9986","OBJECT_TYPE":"PAYLOAD","ECCENTRICITY":"0.00011740","DECAY_DATE":null,"SEMIMAJOR_AXIS":"6890.058","CENTER_NAME":"EARTH","EPHEMERIS_TYPE":"0","EPOCH":"2023-06-08T22:00:00.999936","SITE":"AFETR","BSTAR":"-0.04905100000000","GP_ID":"233477970","MEAN_MOTION":"15.17988355","MEAN_ANOMALY":"3.1721","RCS_SIZE":"LARGE","REF_FRAME":"TEME","MEAN_MOTION_DDOT":"0.0000000000000","FILE":"3928047","ELEMENT_SET_NO":"999","OBJECT_ID":"2023-042AU","COUNTRY_CODE":"US","PERIAPSIS":"511.114","APOAPSIS":"512.732","CLASSIFICATION_TYPE":"U","TIME_SYSTEM":"UTC","REV_AT_EPOCH":"1225","TLE_LINE2":"2 56028  42.9986 103.2112 0001174 261.2254   3.1721 15.17988355 12252","PERIOD":"94.862"},{"GP_ID":"233506939","BSTAR":"-0.05010500000000","EPOCH":"2023-06-08T22:00:00.999936","SITE":"AFETR","EPHEMERIS_TYPE":"0","CENTER_NAME":"EARTH","SEMIMAJOR_AXIS":"6892.075","REV_AT_EPOCH":"130","TLE_LINE2":"2 56029  42.9981 103.3095 0001099 262.4518 320.7986 15.17322019  1305","PERIOD":"94.904","TIME_SYSTEM":"UTC","APOAPSIS":"514.698","PERIAPSIS":"513.183","CLASSIFICATION_TYPE":"U","ELEMENT_SET_NO":"999","OBJECT_ID":"2023-042AV","COUNTRY_CODE":"US","REF_FRAME":"TEME","MEAN_MOTION_DDOT":"0.0000000000000","FILE":"3928201","RCS_SIZE":"LARGE","MEAN_MOTION":"15.17322019","MEAN_ANOMALY":"320.7986","RA_OF_ASC_NODE":"103.3095","NORAD_CAT_ID":"56029","MEAN_ELEMENT_THEORY":"SGP4","ARG_OF_PERICENTER":"262.4518","DECAY_DATE":null,"ECCENTRICITY":"0.00010990","OBJECT_TYPE":"PAYLOAD","INCLINATION":"42.9981","OBJECT_NAME":"STARLINK-5774","MEAN_MOTION_DOT":"-0.00940635","TLE_LINE1":"1 56029U 23042AV  23159.91667824 -.00940635  00000-0 -50105-1 0  9997","LAUNCH_DATE":"2023-03-24"},{"OBJECT_NAME":"STARLINK-5781","INCLINATION":"42.9988","TLE_LINE1":"1 56030U 23042AW  23159.91667824 -.00943121  00000-0 -49003-1 0  9997","LAUNCH_DATE":"2023-03-24","MEAN_MOTION_DOT":"-0.00943121","DECAY_DATE":null,"ECCENTRICITY":"0.00011840","OBJECT_TYPE":"PAYLOAD","ARG_OF_PERICENTER":"255.3453","NORAD_CAT_ID":"56030","RA_OF_ASC_NODE":"103.1821","MEAN_ELEMENT_THEORY":"SGP4","FILE":"3928201","MEAN_MOTION_DDOT":"0.0000000000000","REF_FRAME":"TEME","MEAN_ANOMALY":"21.1971","MEAN_MOTION":"15.18187682","RCS_SIZE":"LARGE","TIME_SYSTEM":"UTC","PERIOD":"94.850","TLE_LINE2":"2 56030  42.9988 103.1821 0001184 255.3453  21.1971 15.18187682  1305","REV_AT_EPOCH":"130","COUNTRY_CODE":"US","OBJECT_ID":"2023-042AW","ELEMENT_SET_NO":"999","CLASSIFICATION_TYPE":"U","APOAPSIS":"512.136","PERIAPSIS":"510.504","CENTER_NAME":"EARTH","EPHEMERIS_TYPE":"0","SEMIMAJOR_AXIS":"6889.455","GP_ID":"233505689","SITE":"AFETR","EPOCH":"2023-06-08T22:00:00.999936","BSTAR":"-0.04900300000000"},{"CENTER_NAME":"EARTH","EPHEMERIS_TYPE":"0","SEMIMAJOR_AXIS":"6890.785","GP_ID":"233505939","EPOCH":"2023-06-08T22:00:00.999936","SITE":"AFETR","BSTAR":"-0.04936800000000","REF_FRAME":"TEME","MEAN_MOTION_DDOT":"0.0000000000000","FILE":"3928201","MEAN_MOTION":"15.17747989","MEAN_ANOMALY":"356.0618","RCS_SIZE":"LARGE","TIME_SYSTEM":"UTC","TLE_LINE2":"2 56031  42.9984 103.2457 0001180 253.6959 356.0618 15.17747989  1305","REV_AT_EPOCH":"130","PERIOD":"94.877","ELEMENT_SET_NO":"999","OBJECT_ID":"2023-042AX","COUNTRY_CODE":"US","APOAPSIS":"513.464","PERIAPSIS":"511.837","CLASSIFICATION_TYPE":"U","ARG_OF_PERICENTER":"253.6959","NORAD_CAT_ID":"56031","RA_OF_ASC_NODE":"103.2457","MEAN_ELEMENT_THEORY":"SGP4","OBJECT_NAME":"STARLINK-5785","INCLINATION":"42.9984","TLE_LINE1":"1 56031U 23042AX  23159.91667824 -.00938477  00000-0 -49368-1 0  9990","LAUNCH_DATE":"2023-03-24","MEAN_MOTION_DOT":"-0.00938477","ECCENTRICITY":"0.00011800","DECAY_DATE":null,"OBJECT_TYPE":"PAYLOAD"},{"PERIAPSIS":"508.471","APOAPSIS":"510.188","CLASSIFICATION_TYPE":"U","OBJECT_ID":"2023-042AY","ELEMENT_SET_NO":"999","COUNTRY_CODE":"US","TLE_LINE2":"2 56032  43.0003 103.0877 0001247 256.9688  59.1236 15.18845853  1300","PERIOD":"94.809","REV_AT_EPOCH":"130","TIME_SYSTEM":"UTC","RCS_SIZE":"LARGE","MEAN_MOTION":"15.18845853","MEAN_ANOMALY":"59.1236","REF_FRAME":"TEME","FILE":"3928201","MEAN_MOTION_DDOT":"0.0000000000000","BSTAR":"-0.04806600000000","EPOCH":"2023-06-08T22:00:00.999936","SITE":"AFETR","GP_ID":"233507191","SEMIMAJOR_AXIS":"6887.465","EPHEMERIS_TYPE":"0","CENTER_NAME":"EARTH","OBJECT_TYPE":"PAYLOAD","DECAY_DATE":null,"ECCENTRICITY":"0.00012470","MEAN_MOTION_DOT":"-0.00942992","TLE_LINE1":"1 56032U 23042AY  23159.91667824 -.00942992  00000-0 -48066-1 0  9992","LAUNCH_DATE":"2023-03-24","INCLINATION":"43.0003","OBJECT_NAME":"STARLINK-5786","MEAN_ELEMENT_THEORY":"SGP4","RA_OF_ASC_NODE":"103.0877","NORAD_CAT_ID":"56032","ARG_OF_PERICENTER":"256.9688"},{"RCS_SIZE":"LARGE","MEAN_ANOMALY":"50.0948","MEAN_MOTION":"15.18648306","MEAN_MOTION_DDOT":"0.0000000000000","FILE":"3928201","REF_FRAME":"TEME","CLASSIFICATION_TYPE":"U","PERIAPSIS":"509.082","APOAPSIS":"510.771","COUNTRY_CODE":"US","OBJECT_ID":"2023-042AZ","ELEMENT_SET_NO":"999","TLE_LINE2":"2 56033  43.0000 103.1160 0001226 254.1690  50.0948 15.18648306  1308","PERIOD":"94.821","REV_AT_EPOCH":"130","TIME_SYSTEM":"UTC","SEMIMAJOR_AXIS":"6888.062","EPHEMERIS_TYPE":"0","CENTER_NAME":"EARTH","BSTAR":"-0.04828400000000","SITE":"AFETR","EPOCH":"2023-06-08T22:00:00.999936","GP_ID":"233507440","MEAN_MOTION_DOT":"-0.00941916","LAUNCH_DATE":"2023-03-24","TLE_LINE1":"1 56033U 23042AZ  23159.91667824 -.00941916  00000-0 -48284-1 0  9990","INCLINATION":"43.0000","OBJECT_NAME":"STARLINK-5784","OBJECT_TYPE":"PAYLOAD","DECAY_DATE":null,"ECCENTRICITY":"0.00012260","ARG_OF_PERICENTER":"254.1690","MEAN_ELEMENT_THEORY":"SGP4","RA_OF_ASC_NODE":"103.1160","NORAD_CAT_ID":"56033"},{"TLE_LINE1":"1 56034U 23042BA  23159.91667824 -.00943887  00000-0 -47765-1 0  9993","LAUNCH_DATE":"2023-03-24","MEAN_MOTION_DOT":"-0.00943887","OBJECT_NAME":"STARLINK-5782","INCLINATION":"43.0005","OBJECT_TYPE":"PAYLOAD","ECCENTRICITY":"0.00012850","DECAY_DATE":null,"ARG_OF_PERICENTER":"255.6310","MEAN_ELEMENT_THEORY":"SGP4","NORAD_CAT_ID":"56034","RA_OF_ASC_NODE":"103.0527","MEAN_MOTION":"15.19096109","MEAN_ANOMALY":"75.1378","RCS_SIZE":"LARGE","REF_FRAME":"TEME","MEAN_MOTION_DDOT":"0.0000000000000","FILE":"3928201","OBJECT_ID":"2023-042BA","ELEMENT_SET_NO":"999","COUNTRY_CODE":"US","PERIAPSIS":"507.688","APOAPSIS":"509.458","CLASSIFICATION_TYPE":"U","TIME_SYSTEM":"UTC","TLE_LINE2":"2 56034  43.0005 103.0527 0001285 255.6310  75.1378 15.19096109  1304","PERIOD":"94.793","REV_AT_EPOCH":"130","SEMIMAJOR_AXIS":"6886.708","CENTER_NAME":"EARTH","EPHEMERIS_TYPE":"0","EPOCH":"2023-06-08T22:00:00.999936","SITE":"AFETR","BSTAR":"-0.04776500000000","GP_ID":"233506190"}];
